{"type": "FeatureCollection", "features": [ {"type": "Feature", "properties": {"norad_id": 30272, "name": "FENGYUN 1C DEB", "group": "fengyun-1c-debris", "lat": -20.766682536392267, "lon": 72.98976109482292, "alt_km": 842.9592308020365, "timestamp": "2025-12-27T22:26:48.878346+00:00", "meta": {"OBJECT_NAME": "FENGYUN 1C DEB", "OBJECT_ID": "1999-025YH", "EPOCH": "2025-12-27T03:52:30.749664", "MEAN_MOTION": 14.14773782, "ECCENTRICITY": 0.00499703, "INCLINATION": 98.8995, "RA_OF_ASC_NODE": 68.8122, "ARG_OF_PERICENTER": 63.1453, "MEAN_ANOMALY": 297.4817, "EPHEMERIS_TYPE": 0, "CLASSIFICATION_TYPE": "U", "NORAD_CAT_ID": 30272, "ELEMENT_SET_NO": 999, "REV_AT_EPOCH": 97060, "BSTAR": 0.0011728034, "MEAN_MOTION_DOT": 2.244e-05, "MEAN_MOTION_DDOT": 0}, "tle": {"line1": "1 30272U 99025YH  25361.16146701  .00002244  00000+0  11728-2 0  9994", "line2": "2 30272  98.8995  68.8122 0049970  63.1453 297.4817 14.14773782970606"}}, "geometry": {"type": "Point", "coordinates": [72.98976109482292, -20.766682536392267]}}, {"type": "Feature", "properties": {"norad_id": 30273, "name": "FENGYUN 1C DEB", "group": "fengyun-1c-debris", "lat": 16.95534324381116, "lon": 13.332191233232402, "alt_km": 928.5669622424666, "timestamp": "2025-12-27T22:26:48.878356+00:00", "meta": {"OBJECT_NAME": "FENGYUN 1C DEB", "OBJECT_ID": "1999-025YJ", "EPOCH": "2025-12-27T12:43:17.933952", "MEAN_MOTION": 14.02678211, "ECCENTRICITY": 0.0060845, "INCLINATION": 98.8387, "RA_OF_ASC_NODE": 15.658, "ARG_OF_PERICENTER": 207.8967, "MEAN_ANOMALY": 284.1788, "EPHEMERIS_TYPE": 0, "CLASSIFICATION_TYPE": "U", "NORAD_CAT_ID": 30273, "ELEMENT_SET_NO": 999, "REV_AT_EPOCH": 96736, "BSTAR": 0.00037596, "MEAN_MOTION_DOT": 5.47e-06, "MEAN_MOTION_DDOT": 0}, "tle": {"line1": "1 30273U 99025YJ  25361.53006868  .00000547  00000+0  37596-3 0  9991", "line2": "2 30273  98.8387  15.6580 0060845 207.8967 284.1788 14.02678211967368"}}, "geometry": {"type": "Point", "coordinates": [13.332191233232402, 16.95534324381116]}}, {"type": "Feature", "properties": {"norad_id": 30274, "name": "FENGYUN 1C DEB", "group": "fengyun-1c-debris", "lat": 4.058624493288858, "lon": 131.55706784188777, "alt_km": 724.9984102546523, "timestamp": "2025-12-27T22:26:48.878376+00:00", "meta": {"OBJECT_NAME": "FENGYUN 1C DEB", "OBJECT_ID": "1999-025YK", "EPOCH": "2025-12-27T03:24:11.919168", "MEAN_MOTION": 14.51915258, "ECCENTRICITY": 0.00046111, "INCLINATION": 99.3015, "RA_OF_ASC_NODE": 131.3456, "ARG_OF_PERICENTER": 184.3608, "MEAN_ANOMALY": 354.7529, "EPHEMERIS_TYPE": 0, "CLASSIFICATION_TYPE": "U", "NORAD_CAT_ID": 30274, "ELEMENT_SET_NO": 999, "REV_AT_EPOCH": 98419, "BSTAR": 0.003196199, "MEAN_MOTION_DOT": 0.00012861, "MEAN_MOTION_DDOT": 0}, "tle": {"line1": "1 30274U 99025YK  25361.14180462  .00012861  00000+0  31962-2 0  9994", "line2": "2 30274  99.3015 131.3456 0004611 184.3608 354.7529 14.51915258984197"}}, "geometry": {"type": "Point", "coordinates": [131.55706784188777, 4.058624493288858]}}, {"type": "Feature", "properties": {"norad_id": 30275, "name": "FENGYUN 1C DEB", "group": "fengyun-1c-debris", "lat": -32.91231077051772, "lon": 92.0807454441963, "alt_km": 774.4914210452944, "timestamp": "2025-12-27T22:26:48.878387+00:00", "meta": {"OBJECT_NAME": "FENGYUN 1C DEB", "OBJECT_ID": "1999-025YL", "EPOCH": "2025-12-27T11:34:21.756000", "MEAN_MOTION": 14.45515811, "ECCENTRICITY": 0.003955, "INCLINATION": 98.6266, "RA_OF_ASC_NODE": 85.9816, "ARG_OF_PERICENTER": 143.8575, "MEAN_ANOMALY": 346.4761, "EPHEMERIS_TYPE": 0, "CLASSIFICATION_TYPE": "U", "NORAD_CAT_ID": 30275, "ELEMENT_SET_NO": 999, "REV_AT_EPOCH": 98297, "BSTAR": 0.0024411, "MEAN_MOTION_DOT": 8.655e-05, "MEAN_MOTION_DDOT": 0}, "tle": {"line1": "1 30275U 99025YL  25361.48219625  .00008655  00000+0  24411-2 0  9993", "line2": "2 30275  98.6266  85.9816 0039550 143.8575 346.4761 14.45515811982979"}}, "geometry": {"type": "Point", "coordinates": [92.0807454441963, -32.91231077051772]}}, {"type": "Feature", "properties": {"norad_id": 30276, "name": "FENGYUN 1C DEB", "group": "fengyun-1c-debris", "lat": -12.752652545807315, "lon": 75.72120523926091, "alt_km": 797.2246232066673, "timestamp": "2025-12-27T22:26:48.878398+00:00", "meta": {"OBJECT_NAME": "FENGYUN 1C DEB", "OBJECT_ID": "1999-025YM", "EPOCH": "2025-12-27T03:59:52.053216", "MEAN_MOTION": 14.27111556, "ECCENTRICITY": 0.00237403, "INCLINATION": 98.8584, "RA_OF_ASC_NODE": 72.9202, "ARG_OF_PERICENTER": 49.3323, "MEAN_ANOMALY": 310.9915, "EPHEMERIS_TYPE": 0, "CLASSIFICATION_TYPE": "U", "NORAD_CAT_ID": 30276, "ELEMENT_SET_NO": 999, "REV_AT_EPOCH": 97736, "BSTAR": 0.0014404698, "MEAN_MOTION_DOT": 3.478e-05, "MEAN_MOTION_DDOT": 0}, "tle": {"line1": "1 30276U 99025YM  25361.16657469  .00003478  00000+0  14405-2 0  9991", "line2": "2 30276  98.8584  72.9202 0023740  49.3323 310.9915 14.27111556977367"}}, "geometry": {"type": "Point", "coordinates": [75.72120523926091, -12.752652545807315]}}, {"type": "Feature", "properties": {"norad_id": 30277, "name": "FENGYUN 1C DEB", "group": "fengyun-1c-debris", "lat": 39.76018966397661, "lon": 65.10204981599216, "alt_km": 850.148448096179, "timestamp": "2025-12-27T22:26:48.878408+00:00", "meta": {"OBJECT_NAME": "FENGYUN 1C DEB", "OBJECT_ID": "1999-025YN", "EPOCH": "2025-12-27T10:57:46.426176", "MEAN_MOTION": 14.13650971, "ECCENTRICITY": 0.0123922, "INCLINATION": 98.9714, "RA_OF_ASC_NODE": 72.1744, "ARG_OF_PERICENTER": 136.5861, "MEAN_ANOMALY": 351.4605, "EPHEMERIS_TYPE": 0, "CLASSIFICATION_TYPE": "U", "NORAD_CAT_ID": 30277, "ELEMENT_SET_NO": 999, "REV_AT_EPOCH": 96997, "BSTAR": 0.0013353, "MEAN_MOTION_DOT": 2.669e-05, "MEAN_MOTION_DDOT": 0}, "tle": {"line1": "1 30277U 99025YN  25361.45678734  .00002669  00000+0  13353-2 0  9994", "line2": "2 30277  98.9714  72.1744 0123922 136.5861 351.4605 14.13650971969974"}}, "geometry": {"type": "Point", "coordinates": [65.10204981599216, 39.76018966397661]}}, {"type": "Feature", "properties": {"norad_id": 30279, "name": "FENGYUN 1C DEB", "group": "fengyun-1c-debris", "lat": 29.370888533054035, "lon": -67.94735494080344, "alt_km": 655.1667166905481, "timestamp": "2025-12-27T22:26:48.878418+00:00", "meta": {"OBJECT_NAME": "FENGYUN 1C DEB", "OBJECT_ID": "1999-025YQ", "EPOCH": "2025-12-27T02:08:36.879936", "MEAN_MOTION": 14.2316782, "ECCENTRICITY": 0.02196026, "INCLINATION": 99.1515, "RA_OF_ASC_NODE": 296.3781, "ARG_OF_PERICENTER": 31.8155, "MEAN_ANOMALY": 346.2025, "EPHEMERIS_TYPE": 0, "CLASSIFICATION_TYPE": "U", "NORAD_CAT_ID": 30279, "ELEMENT_SET_NO": 999, "REV_AT_EPOCH": 97815, "BSTAR": 0.0011987567, "MEAN_MOTION_DOT": 3.421e-05, "MEAN_MOTION_DDOT": 0}, "tle": {"line1": "1 30279U 99025YQ  25361.08931574  .00003421  00000+0  11988-2 0  9998", "line2": "2 30279  99.1515 296.3781 0219602  31.8155 346.2025 14.23167820978158"}}, "geometry": {"type": "Point", "coordinates": [-67.94735494080344, 29.370888533054035]}}, {"type": "Feature", "properties": {"norad_id": 30280, "name": "FENGYUN 1C DEB", "group": "fengyun-1c-debris", "lat": -61.66538510838208, "lon": 154.0199740307936, "alt_km": 864.9052611310635, "timestamp": "2025-12-27T22:26:48.878428+00:00", "meta": {"OBJECT_NAME": "FENGYUN 1C DEB", "OBJECT_ID": "1999-025YR", "EPOCH": "2025-12-27T10:01:27.054336", "MEAN_MOTION": 13.98334943, "ECCENTRICITY": 0.0079749, "INCLINATION": 98.7757, "RA_OF_ASC_NODE": 350.1714, "ARG_OF_PERICENTER": 288.6012, "MEAN_ANOMALY": 230.6938, "EPHEMERIS_TYPE": 0, "CLASSIFICATION_TYPE": "U", "NORAD_CAT_ID": 30280, "ELEMENT_SET_NO": 999, "REV_AT_EPOCH": 96611, "BSTAR": 0.00021208, "MEAN_MOTION_DOT": 2.69e-06, "MEAN_MOTION_DDOT": 0}, "tle": {"line1": "1 30280U 99025YR  25361.41767424  .00000269  00000+0  21208-3 0  9992", "line2": "2 30280  98.7757 350.1714 0079749 288.6012 230.6938 13.98334943966113"}}, "geometry": {"type": "Point", "coordinates": [154.0199740307936, -61.66538510838208]}}, {"type": "Feature", "properties": {"norad_id": 30281, "name": "FENGYUN 1C DEB", "group": "fengyun-1c-debris", "lat": 47.8403778928291, "lon": -18.449764914276674, "alt_km": 870.119850219221, "timestamp": "2025-12-27T22:26:48.878438+00:00", "meta": {"OBJECT_NAME": "FENGYUN 1C DEB", "OBJECT_ID": "1999-025YS", "EPOCH": "2025-12-27T12:34:07.776768", "MEAN_MOTION": 14.10486976, "ECCENTRICITY": 0.0028458, "INCLINATION": 98.7582, "RA_OF_ASC_NODE": 350.9519, "ARG_OF_PERICENTER": 194.2478, "MEAN_ANOMALY": 285.836, "EPHEMERIS_TYPE": 0, "CLASSIFICATION_TYPE": "U", "NORAD_CAT_ID": 30281, "ELEMENT_SET_NO": 999, "REV_AT_EPOCH": 97429, "BSTAR": 0.00022865, "MEAN_MOTION_DOT": 3.65e-06, "MEAN_MOTION_DDOT": 0}, "tle": {"line1": "1 30281U 99025YS  25361.52370112  .00000365  00000+0  22865-3 0  9996", "line2": "2 30281  98.7582 350.9519 0028458 194.2478 285.8360 14.10486976974298"}}, "geometry": {"type": "Point", "coordinates": [-18.449764914276674, 47.8403778928291]}}, {"type": "Feature", "properties": {"norad_id": 30282, "name": "FENGYUN 1C DEB", "group": "fengyun-1c-debris", "lat": -61.25148364670694, "lon": 20.262333651052682, "alt_km": 714.3189451562921, "timestamp": "2025-12-27T22:26:48.878448+00:00", "meta": {"OBJECT_NAME": "FENGYUN 1C DEB", "OBJECT_ID": "1999-025YT", "EPOCH": "2025-12-26T23:16:29.195904", "MEAN_MOTION": 14.12998039, "ECCENTRICITY": 0.020954, "INCLINATION": 98.5019, "RA_OF_ASC_NODE": 3.5217, "ARG_OF_PERICENTER": 321.2413, "MEAN_ANOMALY": 108.663, "EPHEMERIS_TYPE": 0, "CLASSIFICATION_TYPE": "U", "NORAD_CAT_ID": 30282, "ELEMENT_SET_NO": 999, "REV_AT_EPOCH": 97552, "BSTAR": 0.00042237, "MEAN_MOTION_DOT": 9.26e-06, "MEAN_MOTION_DDOT": 0}, "tle": {"line1": "1 30282U 99025YT  25360.96978236  .00000926  00000+0  42237-3 0  9993", "line2": "2 30282  98.5019   3.5217 0209540 321.2413 108.6630 14.12998039975521"}}, "geometry": {"type": "Point", "coordinates": [20.262333651052682, -61.25148364670694]}}]}